[{"OBJECT_NAME":"FLOCK 4BE-12","OBJECT_ID":"2024-149CW","EPOCH":"2026-03-06T11:52:26.463072","MEAN_MOTION":15.4587074,"ECCENTRICITY":0.00058642,"INCLINATION":97.3765,"RA_OF_ASC_NODE":149.4114,"ARG_OF_PERICENTER":273.1659,"MEAN_ANOMALY":86.8919,"EPHEMERIS_TYPE":0,"CLASSIFICATION_TYPE":"U","NORAD_CAT_ID":60560,"ELEMENT_SET_NO":999,"REV_AT_EPOCH":8657,"BSTAR":0.002224461,"MEAN_MOTION_DOT":0.00109368,"MEAN_MOTION_DDOT":0},{"OBJECT_NAME":"FLOCK 4BE-3","OBJECT_ID":"2024-149CX","EPOCH":"2026-03-07T04:37:12.276480","MEAN_MOTION":15.38079468,"ECCENTRICITY":0.0003175,"INCLINATION":97.374,"RA_OF_ASC_NODE":149.3672,"ARG_OF_PERICENTER":290.9518,"MEAN_ANOMALY":69.1387,"EPHEMERIS_TYPE":0,"CLASSIFICATION_TYPE":"U","NORAD_CAT_ID":60561,"ELEMENT_SET_NO":999,"REV_AT_EPOCH":8664,"BSTAR":0.00058527,"MEAN_MOTION_DOT":0.0002189,"MEAN_MOTION_DDOT":0},{"OBJECT_NAME":"FLOCK 4BE-19","OBJECT_ID":"2024-149CZ","EPOCH":"2026-03-07T04:51:56.636640","MEAN_MOTION":15.40209955,"ECCENTRICITY":0.000312,"INCLINATION":97.3781,"RA_OF_ASC_NODE":150.4734,"ARG_OF_PERICENTER":296.4215,"MEAN_ANOMALY":63.671,"EPHEMERIS_TYPE":0,"CLASSIFICATION_TYPE":"U","NORAD_CAT_ID":60563,"ELEMENT_SET_NO":999,"REV_AT_EPOCH":8670,"BSTAR":0.00065052,"MEAN_MOTION_DOT":0.00026109,"MEAN_MOTION_DDOT":0},{"OBJECT_NAME":"PELICAN-2","OBJECT_ID":"2025-009Y","EPOCH":"2026-03-07T04:37:09.719040","MEAN_MOTION":15.4028133,"ECCENTRICITY":0.0007788,"INCLINATION":97.401,"RA_OF_ASC_NODE":156.4669,"ARG_OF_PERICENTER":210.1999,"MEAN_ANOMALY":149.88,"EPHEMERIS_TYPE":0,"CLASSIFICATION_TYPE":"U","NORAD_CAT_ID":62631,"ELEMENT_SET_NO":999,"REV_AT_EPOCH":6385,"BSTAR":0.0013007,"MEAN_MOTION_DOT":0.00052635,"MEAN_MOTION_DDOT":0},{"OBJECT_NAME":"PELICAN-3","OBJECT_ID":"2025-188A","EPOCH":"2026-03-06T02:28:16.779072","MEAN_MOTION":15.40614124,"ECCENTRICITY":0.0003927,"INCLINATION":97.2226,"RA_OF_ASC_NODE":142.6913,"ARG_OF_PERICENTER":185.4103,"MEAN_ANOMALY":174.7102,"EPHEMERIS_TYPE":0,"CLASSIFICATION_TYPE":"U","NORAD_CAT_ID":65315,"ELEMENT_SET_NO":999,"REV_AT_EPOCH":2944,"BSTAR":0.0012741969,"MEAN_MOTION_DOT":0.00052087,"MEAN_MOTION_DDOT":0},{"OBJECT_NAME":"PELICAN-4","OBJECT_ID":"2025-188B","EPOCH":"2026-03-06T04:24:16.318944","MEAN_MOTION":15.40590175,"ECCENTRICITY":0.00033661,"INCLINATION":97.2374,"RA_OF_ASC_NODE":142.8658,"ARG_OF_PERICENTER":97.3176,"MEAN_ANOMALY":262.8454,"EPHEMERIS_TYPE":0,"CLASSIFICATION_TYPE":"U","NORAD_CAT_ID":65316,"ELEMENT_SET_NO":999,"REV_AT_EPOCH":2945,"BSTAR":0.00020928305,"MEAN_MOTION_DOT":8.432e-5,"MEAN_MOTION_DDOT":0}]
