FLOCK 4BE-12            
1 60560U 24149CW  26065.49475073  .00109368  00000+0  22245-2 0  9998
2 60560  97.3765 149.4114 0005864 273.1659  86.8919 15.45870740 86574
FLOCK 4BE-3             
1 60561U 24149CX  26066.19250320  .00021890  00000+0  58527-3 0  9999
2 60561  97.3740 149.3672 0003175 290.9518  69.1387 15.38079468 86641
FLOCK 4BE-19            
1 60563U 24149CZ  26066.20273885  .00026109  00000+0  65052-3 0  9993
2 60563  97.3781 150.4734 0003120 296.4215  63.6710 15.40209955 86700
PELICAN-2               
1 62631U 25009Y   26066.19247360  .00052635  00000+0  13007-2 0  9999
2 62631  97.4010 156.4669 0007788 210.1999 149.8800 15.40281330 63858
PELICAN-3               
1 65315U 25188A   26065.10297198  .00052087  00000+0  12742-2 0  9999
2 65315  97.2226 142.6913 0003927 185.4103 174.7102 15.40614124 29448
PELICAN-4               
1 65316U 25188B   26065.18352221  .00008432  00000+0  20928-3 0  9998
2 65316  97.2374 142.8658 0003366  97.3176 262.8454 15.40590175 29458
